{
  "type": "FeatureCollection",
  "features": [
    {
      "type": "Feature",
      "properties": {
        "norad_id": 39773,
        "name": "EUTELSAT 3B",
        "group": "eutelsat",
        "lat": -0.06981965454298554,
        "lon": -46.23672482805822,
        "alt_km": 35782.810813985016,
        "timestamp": "2025-12-21T14:40:47.582137+00:00",
        "meta_object_name": "EUTELSAT 3B",
        "meta_object_id": "2014-030A",
        "meta_epoch": "2025-12-21T02:56:23.102304",
        "meta_mean_motion": 1.00272656,
        "meta_eccentricity": 0.00041547,
        "meta_inclination": 0.061,
        "meta_ra_of_asc_node": 7.8675,
        "meta_arg_of_pericenter": 225.4448,
        "meta_mean_anomaly": 263.8264,
        "meta_ephemeris_type": 0,
        "meta_classification_type": "U",
        "meta_norad_cat_id": 39773,
        "meta_element_set_no": 999,
        "meta_rev_at_epoch": 4228,
        "meta_bstar": 0,
        "meta_mean_motion_dot": 4.3e-07,
        "meta_mean_motion_ddot": 0,
        "tle_line1": "1 39773U 14030A   25355.12248961  .00000043  00000+0  00000+0 0  9995",
        "tle_line2": "2 39773   0.0610   7.8675 0004154 225.4448 263.8264  1.00272656 42280"
      },
      "geometry": {
        "type": "Point",
        "coordinates": [
          -46.23672482805822,
          -0.06981965454298554
        ]
      }
    },
    {
      "type": "Feature",
      "properties": {
        "norad_id": 40425,
        "name": "EUTELSAT 115 WEST B",
        "group": "eutelsat",
        "lat": 0.0022484107957656896,
        "lon": -164.29031518060086,
        "alt_km": 35787.78414704014,
        "timestamp": "2025-12-21T14:40:47.582149+00:00",
        "meta_object_name": "EUTELSAT 115 WEST B",
        "meta_object_id": "2015-010B",
        "meta_epoch": "2025-12-21T04:29:33.223776",
        "meta_mean_motion": 1.00269059,
        "meta_eccentricity": 3.333e-05,
        "meta_inclination": 0.0159,
        "meta_ra_of_asc_node": 149.3637,
        "meta_arg_of_pericenter": 179.3265,
        "meta_mean_anomaly": 73.8064,
        "meta_ephemeris_type": 0,
        "meta_classification_type": "U",
        "meta_norad_cat_id": 40425,
        "meta_element_set_no": 999,
        "meta_rev_at_epoch": 3960,
        "meta_bstar": 0,
        "meta_mean_motion_dot": -2e-08,
        "meta_mean_motion_ddot": 0,
        "tle_line1": "1 40425U 15010B   25355.18719009 -.00000002  00000+0  00000+0 0  9998",
        "tle_line2": "2 40425   0.0159 149.3637 0000333 179.3265  73.8064  1.00269059 39605"
      },
      "geometry": {
        "type": "Point",
        "coordinates": [
          -164.29031518060086,
          0.0022484107957656896
        ]
      }
    },
    {
      "type": "Feature",
      "properties": {
        "norad_id": 40875,
        "name": "EUTELSAT 8 WEST B",
        "group": "eutelsat",
        "lat": -0.0762922474183946,
        "lon": -57.35290496534326,
        "alt_km": 35770.889434043034,
        "timestamp": "2025-12-21T14:40:47.582161+00:00",
        "meta_object_name": "EUTELSAT 8 WEST B",
        "meta_object_id": "2015-039B",
        "meta_epoch": "2025-12-21T06:18:38.950848",
        "meta_mean_motion": 1.00271099,
        "meta_eccentricity": 0.00042622,
        "meta_inclination": 0.0634,
        "meta_ra_of_asc_node": 0.0067,
        "meta_arg_of_pericenter": 271.0647,
        "meta_mean_anomaly": 265.6794,
        "meta_ephemeris_type": 0,
        "meta_classification_type": "U",
        "meta_norad_cat_id": 40875,
        "meta_element_set_no": 999,
        "meta_rev_at_epoch": 3787,
        "meta_bstar": 0,
        "meta_mean_motion_dot": -4.3e-07,
        "meta_mean_motion_ddot": 0,
        "tle_line1": "1 40875U 15039B   25355.26295082 -.00000043  00000+0  00000+0 0  9992",
        "tle_line2": "2 40875   0.0634   0.0067 0004262 271.0647 265.6794  1.00271099 37876"
      },
      "geometry": {
        "type": "Point",
        "coordinates": [
          -57.35290496534326,
          -0.0762922474183946
        ]
      }
    },
    {
      "type": "Feature",
      "properties": {
        "norad_id": 41310,
        "name": "EUTELSAT 9B",
        "group": "eutelsat",
        "lat": -0.07352148982206683,
        "lon": -40.34672047010197,
        "alt_km": 35772.10695224085,
        "timestamp": "2025-12-21T14:40:47.582173+00:00",
        "meta_object_name": "EUTELSAT 9B",
        "meta_object_id": "2016-005A",
        "meta_epoch": "2025-12-21T02:58:07.934880",
        "meta_mean_motion": 1.00272818,
        "meta_eccentricity": 0.00044821,
        "meta_inclination": 0.0637,
        "meta_ra_of_asc_node": 72.0406,
        "meta_arg_of_pericenter": 203.606,
        "meta_mean_anomaly": 227.8308,
        "meta_ephemeris_type": 0,
        "meta_classification_type": "U",
        "meta_norad_cat_id": 41310,
        "meta_element_set_no": 999,
        "meta_rev_at_epoch": 3633,
        "meta_bstar": 0,
        "meta_mean_motion_dot": 8.5e-07,
        "meta_mean_motion_ddot": 0,
        "tle_line1": "1 41310U 16005A   25355.12370295  .00000085  00000+0  00000+0 0  9991",
        "tle_line2": "2 41310   0.0637  72.0406 0004482 203.6060 227.8308  1.00272818 36335"
      },
      "geometry": {
        "type": "Point",
        "coordinates": [
          -40.34672047010197,
          -0.07352148982206683
        ]
      }
    },
    {
      "type": "Feature",
      "properties": {
        "norad_id": 41382,
        "name": "EUTELSAT 65 WEST A",
        "group": "eutelsat",
        "lat": -0.07555927921613163,
        "lon": -114.58805079485249,
        "alt_km": 35777.544976700854,
        "timestamp": "2025-12-21T14:40:47.582185+00:00",
        "meta_object_name": "EUTELSAT 65 WEST A",
        "meta_object_id": "2016-014A",
        "meta_epoch": "2025-12-21T06:02:25.503648",
        "meta_mean_motion": 1.00273776,
        "meta_eccentricity": 0.00021413,
        "meta_inclination": 0.0524,
        "meta_ra_of_asc_node": 333.9556,
        "meta_arg_of_pericenter": 299.2512,
        "meta_mean_anomaly": 202.2758,
        "meta_ephemeris_type": 0,
        "meta_classification_type": "U",
        "meta_norad_cat_id": 41382,
        "meta_element_set_no": 999,
        "meta_rev_at_epoch": 3575,
        "meta_bstar": 0,
        "meta_mean_motion_dot": -2.53e-06,
        "meta_mean_motion_ddot": 0,
        "tle_line1": "1 41382U 16014A   25355.25168407 -.00000253  00000+0  00000+0 0  9992",
        "tle_line2": "2 41382   0.0524 333.9556 0002141 299.2512 202.2758  1.00273776 35752"
      },
      "geometry": {
        "type": "Point",
        "coordinates": [
          -114.58805079485249,
          -0.07555927921613163
        ]
      }
    },
    {
      "type": "Feature",
      "properties": {
        "norad_id": 41589,
        "name": "EUTELSAT 117 WEST B",
        "group": "eutelsat",
        "lat": 0.0031806745523240286,
        "lon": -166.3724178553118,
        "alt_km": 35787.10496014606,
        "timestamp": "2025-12-21T14:40:47.582196+00:00",
        "meta_object_name": "EUTELSAT 117 WEST B",
        "meta_object_id": "2016-038B",
        "meta_epoch": "2025-12-21T04:32:38.609664",
        "meta_mean_motion": 1.00270361,
        "meta_eccentricity": 3.44e-05,
        "meta_inclination": 0.0136,
        "meta_ra_of_asc_node": 151.844,
        "meta_arg_of_pericenter": 158.1973,
        "meta_mean_anomaly": 91.1465,
        "meta_ephemeris_type": 0,
        "meta_classification_type": "U",
        "meta_norad_cat_id": 41589,
        "meta_element_set_no": 999,
        "meta_rev_at_epoch": 3487,
        "meta_bstar": 0,
        "meta_mean_motion_dot": 1.1e-07,
        "meta_mean_motion_ddot": 0,
        "tle_line1": "1 41589U 16038B   25355.18933576  .00000011  00000+0  00000+0 0  9997",
        "tle_line2": "2 41589   0.0136 151.8440 0000344 158.1973  91.1465  1.00270361 34875"
      },
      "geometry": {
        "type": "Point",
        "coordinates": [
          -166.3724178553118,
          0.0031806745523240286
        ]
      }
    },
    {
      "type": "Feature",
      "properties": {
        "norad_id": 42741,
        "name": "EUTELSAT 172B",
        "group": "eutelsat",
        "lat": 0.019829175362734416,
        "lon": 122.6227843818192,
        "alt_km": 35785.31486839534,
        "timestamp": "2025-12-21T14:40:47.582208+00:00",
        "meta_object_name": "EUTELSAT 172B",
        "meta_object_id": "2017-029B",
        "meta_epoch": "2025-12-21T03:54:38.769408",
        "meta_mean_motion": 1.00271576,
        "meta_eccentricity": 2.138e-05,
        "meta_inclination": 0.0339,
        "meta_ra_of_asc_node": 123.0997,
        "meta_arg_of_pericenter": 332.7082,
        "meta_mean_anomaly": 224.8432,
        "meta_ephemeris_type": 0,
        "meta_classification_type": "U",
        "meta_norad_cat_id": 42741,
        "meta_element_set_no": 999,
        "meta_rev_at_epoch": 3194,
        "meta_bstar": 0,
        "meta_mean_motion_dot": 1.7e-07,
        "meta_mean_motion_ddot": 0,
        "tle_line1": "1 42741U 17029B   25355.16294872  .00000017  00000+0  00000+0 0  9992",
        "tle_line2": "2 42741   0.0339 123.0997 0000213 332.7082 224.8432  1.00271576 31948"
      },
      "geometry": {
        "type": "Point",
        "coordinates": [
          122.6227843818192,
          0.019829175362734416
        ]
      }
    }
  ]
}